"Kallichore:Jupiter XLIV:2003 J 11" "Sol/Jupiter"
{
	Class "minormoon"
	Texture	 	"asteroid.jpg"
	Mesh		"asteroid.cms"
	Radius		1.0

	EllipticalOrbit
	{
	Epoch		2452644.5	# 2003 Jan 5
	Period		764.73		# mean
	SemiMajorAxis	24043000	# mean
	Eccentricity	0.2640		# mean
	Inclination	162.600
	AscendingNode	50.546
	ArgOfPericenter	353.932
	MeanAnomaly     260.174
	}

	RotationPeriod  10   # Guess

	Albedo 0.04
}

"2003 J 12" "Sol/Jupiter"
{
	Class "minormoon"
	Texture	 	"asteroid.jpg"
	Mesh		"asteroid.cms"
	Radius		0.5

	EllipticalOrbit
	{
	Epoch		2452644.5	# 2003 Jan 5
	Period		489.50		# mean
	SemiMajorAxis	17582000	# mean
	Eccentricity	0.5095		# mean
	Inclination	141.880
	AscendingNode	82.853
	ArgOfPericenter	19.516
	MeanAnomaly     113.072
	}

	RotationPeriod  10   # Guess

	Albedo 0.04
}

"Cyllene:Jupiter XLVIII:2003 J 13" "Sol/Jupiter"
{
	Class "minormoon"
	Texture	 	"asteroid.jpg"
	Mesh		"asteroid.cms"
	Radius		1.0

	EllipticalOrbit
	{
	Epoch		2452644.5	# 2003 Jan 5
	Period		751.94		# mean
	SemiMajorAxis	23951000	# mean
	Eccentricity	0.4116		# mean
	Inclination	141.205
	AscendingNode	281.643
	ArgOfPericenter	212.880
	MeanAnomaly     277.114
	}

	RotationPeriod  10   # Guess

	Albedo 0.04
}

"Kore:Jupiter XLIX:2003 J 14" "Sol/Jupiter"
{
	Class "minormoon"
	Texture	 	"asteroid.jpg"
	Mesh		"asteroid.cms"
	Radius		1.0

	EllipticalOrbit
	{
	Epoch		2452644.5	# 2003 Jan 5
	Period		779.18		# mean
	SemiMajorAxis	24011000	# mean
	Eccentricity	0.3351		# mean
	Inclination	136.767
	AscendingNode	2.112
	ArgOfPericenter	127.569
	MeanAnomaly     225.954
	}

	RotationPeriod  10   # Guess

	Albedo 0.04
}

"2003 J 15" "Sol/Jupiter"
{
	Class "minormoon"
	Texture	 	"asteroid.jpg"
	Mesh		"asteroid.cms"
	Radius		1.0

	EllipticalOrbit
	{
	Epoch		2452644.5	# 2003 Jan 5
	Period		689.77		# mean
	SemiMajorAxis	22627000	# mean
	Eccentricity	0.1910		# mean
	Inclination	142.204
	AscendingNode	266.001
	ArgOfPericenter	28.760
	MeanAnomaly     270.870
	}

	RotationPeriod  10   # Guess

	Albedo 0.04
}

"2003 J 16" "Sol/Jupiter"
{
	Class "minormoon"
	Texture	 	"asteroid.jpg"
	Mesh		"asteroid.cms"
	Radius		1.0

	EllipticalOrbit
	{
	Epoch		2452644.5	# 2003 Jan 5
	Period		616.36		# mean
	SemiMajorAxis	20957000	# mean
	Eccentricity	0.2246		# mean
	Inclination	147.370
	AscendingNode	41.164
	ArgOfPericenter	72.310
	MeanAnomaly     206.244
	}

	RotationPeriod  10   # Guess

	Albedo 0.04
}

"Herse:Jupiter L:2003 J 17" "Sol/Jupiter"
{
	Class "minormoon"
	Texture	 	"asteroid.jpg"
	Mesh		"asteroid.cms"
	Radius		1.0

	EllipticalOrbit
	{
	Epoch		2452644.5	# 2003 Jan 5
	Period		714.47		# mean
	SemiMajorAxis	22992000	# mean
	Eccentricity	0.2378		# mean
	Inclination	161.918
	AscendingNode	332.506
	ArgOfPericenter	355.621
	MeanAnomaly     309.139
	}

	RotationPeriod  10   # Guess

	Albedo 0.04
}

"2003 J 18" "Sol/Jupiter"
{
	Class "minormoon"
	Texture	 	"asteroid.jpg"
	Mesh		"asteroid.cms"
	Radius		1.0

	EllipticalOrbit
	{
	Epoch		2452644.5	# 2003 Jan 5
	Period		596.59		# mean
	SemiMajorAxis	20514000	# mean
	Eccentricity	0.0221		# mean
	Inclination	147.719
	AscendingNode	204.340
	ArgOfPericenter	123.909
	MeanAnomaly     174.708
	}

	RotationPeriod  10   # Guess

	Albedo 0.04
}

"2003 J 19" "Sol/Jupiter"
{
	Class "minormoon"
	Texture	 	"asteroid.jpg"
	Mesh		"asteroid.cms"
	Radius		1.0

	EllipticalOrbit
	{
	Epoch		2452644.5	# 2003 Jan 5
	Period		740.42		# mean
	SemiMajorAxis	23533000	# mean
	Eccentricity	0.2556		# mean
	Inclination	162.048
	AscendingNode	51.355
	ArgOfPericenter	180.864
	MeanAnomaly     34.860
	}

	RotationPeriod  10   # Guess

	Albedo 0.04
}

"Carpo:Jupiter XLVI:2003 J 20" "Sol/Jupiter"
{
	Class "minormoon"
	Texture	 	"asteroid.jpg"
	Mesh		"asteroid.cms"
	Radius		1.5

	EllipticalOrbit
	{
	Epoch		2452644.5	# 2003 Jan 5
	Period		456.10 		# mean
	SemiMajorAxis	16989000	# mean
	Eccentricity	0.4297		# mean
	Inclination	54.223
	AscendingNode	72.057
	ArgOfPericenter	78.282
	MeanAnomaly     140.992
	}

	RotationPeriod  10   # Guess

	Albedo 0.04
}

"Mneme:Jupiter XL:2003 J 21" "Sol/Jupiter"
{
	Class "minormoon"
	Texture	 	"asteroid.jpg"
	Mesh		"asteroid.cms"
	Radius		1.0

	EllipticalOrbit
	{
	Epoch		2452644.5	# 2003 Jan 5
	Period		620.04 		# mean
	SemiMajorAxis	21069000	# mean
	Eccentricity	0.2273		# mean
	Inclination	145.402
	AscendingNode	34.889
	ArgOfPericenter	48.811
	MeanAnomaly     168.011
	}

	RotationPeriod  10   # Guess

	Albedo 0.04
}

"Thelxinoe:Jupiter XLII:2003 J 22" "Sol/Jupiter"
{
	Class "minormoon"
	Texture	 	"asteroid.jpg"
	Mesh		"asteroid.cms"
	Radius		1.0

	EllipticalOrbit
	{
	Epoch		2452644.5	# 2003 Jan 5
	Period		628.09 		# mean
	SemiMajorAxis	21162000	# mean
	Eccentricity	0.2206		# mean
	Inclination	150.941
	AscendingNode	215.311
	ArgOfPericenter	323.714
	MeanAnomaly     191.904
	}

	RotationPeriod  10   # Guess

	Albedo 0.04
}

"2003 J 23" "Sol/Jupiter"
{
	Class "minormoon"
	Texture	 	"asteroid.jpg"
	Mesh		"asteroid.cms"
	Radius		1.0

	EllipticalOrbit
	{
	Epoch		2452644.5	# 2003 Jan 5
	Period		732.44 		# mean
	SemiMajorAxis	23563000	# mean
	Eccentricity	0.2714		# mean
	Inclination	146.420
	AscendingNode	67.747
	ArgOfPericenter	253.422
	MeanAnomaly     328.912
	}

	RotationPeriod  10   # Guess

	Albedo 0.04
}


# Minor moons of Saturn

"Prometheus:Saturn XVI:1980 S 27" "Sol/Saturn"
{
    Texture     "prometheus.*"
    Mesh        "prometheus.cmod"
    Radius      74 # maximum semi-axis
    MeshCenter  [ 0.75 -2.68 1.064 ]

    EllipticalOrbit
    {
        Epoch             2453005.5   # 2004 Jan 1 00:00UT
        Period            0.612986
        SemiMajorAxis     139380
        Eccentricity      0.0023
        Inclination       0.0056
        AscendingNode   226.1099
        LongOfPericenter 23.3280
        MeanLongitude   266.2144
    }

    # orientate meridian at epoch
    UniformRotation
    {
        Epoch 2453005.5   # 2004 Jan 1 00:00UT
        MeridianAngle 86
    }

    Albedo 0.6
}

"Pandora:Saturn XVII:1980 S 26" "Sol/Saturn"
{
    Texture     "asteroid.jpg"
    Mesh        "pandora.cmod"
    Radius      57 # maximum semi-axis
    MeshCenter [ 0.692 -1.454 -0.422 ]

    EllipticalOrbit
    {
        Epoch             2453005.5   # 2004 Jan 1 00:00UT
        Period            0.6285036
        SemiMajorAxis     141710
        Eccentricity      0.0042
        Inclination       0.0522
        AscendingNode   290.0163
        LongOfPericenter 10.4899
        MeanLongitude   212.6961
    }

    # orientate meridian at epoch
    UniformRotation
    {
        Epoch    2453005.5   # 2004 Jan 1 00:00UT
        MeridianAngle 33
    }

    Albedo 0.5
}

"Epimetheus:Saturn XI:1980 S 3" "Sol/Saturn"
{
    Texture     "epimetheus.*"
    Mesh        "epimetheus.cmod"
    Radius      72 # maximum semi-axis
    MeshCenter  [ -5.196 -2.241 -1.878 ]

     EllipticalOrbit
    {
        Epoch              2453005.5   # 2004 Jan 1 00:00UT
        Period             0.6945      # 0.6943: period set to Janus/Epimetheus average
        SemiMajorAxis      151410
        Eccentricity       0.0098
        Inclination        0.3541
        AscendingNode     45.5973
        LongOfPericenter 358.5774
        MeanLongitude    306.0531
    }

    # orientate meridian at epoch
    UniformRotation
    {
        Epoch     2453005.5   # 2004 Jan 1 00:00UT
        MeridianAngle 126
    }

    Albedo 0.5
}

AltSurface "Limit of knowledge" "Sol/Saturn/Epimetheus"
{
    Texture "epimetheus-lok.*"
}

"Janus:Saturn X:1980 S 1" "Sol/Saturn"
{
    Texture     "janus.*"
    Mesh        "janus.cmod"
    Radius      96 # maximum semi-axis
    MeshCenter  [ -1.552 1.358 2.257 ]

    EllipticalOrbit
    {
    Epoch              2453005.5   # 2004 Jan 1 00:00UT
    Period             0.6945      # 0.6947: period set to Janus/Epimetheus average
    SemiMajorAxis      151460
    Eccentricity       0.0067
    Inclination        0.1649
    AscendingNode      8.1758
    LongOfPericenter 248.2856
    MeanLongitude    131.5137
    }

    # orientate meridian at epoch
    UniformRotation
    {
        Epoch     2453005.5   # 2004 Jan 1 00:00UT
        MeridianAngle 312
    }

    Albedo 0.6
}

"Pan:Saturn XVIII:1981 S 13" "Sol/Saturn"   # Cassini-epoch data
{
    Class "minormoon"
    Texture     "asteroid.jpg"
    SemiAxes [ 17.6 17.3 11.5 ]

    EllipticalOrbit
    {
    Epoch       2453177.5 # 2004 Jun 21 00:00UT
    Period      0.57505
    SemiMajorAxis   133584
    Eccentricity    0.00021
    Inclination 0.007
    AscendingNode   263.0
    LongOfPericenter 209.0
    MeanLongitude   106.645
    }

    RotationEpoch       2453177.5 # 2004 Jun 21 00:00UT
    Obliquity         0.0
    RotationOffset      287

    Albedo 0.5
}

"Atlas:Saturn XV:1980 S 28" "Sol/Saturn"   # Cassini-epoch data
{
    Class "minormoon"
    Texture     "asteroid.jpg"
    SemiAxes [ 22.8 19.0 9.6 ]

    EllipticalOrbit
    {
    Epoch       2453177.5 # 2004 Jun 21 00:00UT
    Period      0.60169
    SemiMajorAxis   137665
    Eccentricity    0.0012
    Inclination 0.009
    AscendingNode   241.0
    LongOfPericenter 42.3
    MeanLongitude   331.432
    }

    RotationEpoch       2453177.5 # 2004 Jun 21 00:00UT
    Obliquity         0.0
    RotationOffset      151

    Albedo 0.4
}

